CCSDS_OMM_VERS = 2.0
CREATION_DATE  = 
ORIGINATOR     = 

OBJECT_NAME    = CYGNUS NG-23
OBJECT_ID      = 2025-208A
CENTER_NAME    = EARTH
REF_FRAME      = TEME
TIME_SYSTEM    = UTC
MEAN_ELEMENT_THEORY = SGP/SGP4

EPOCH          = 2026-01-02T19:45:18.254016
MEAN_MOTION    = 15.49046836
ECCENTRICITY   = .00075437
INCLINATION    = 51.6329
RA_OF_ASC_NODE = 38.0777
ARG_OF_PERICENTER = 333.0714
MEAN_ANOMALY   = 26.9882

EPHEMERIS_TYPE = 0
CLASSIFICATION_TYPE = U
NORAD_CAT_ID   = 65616
ELEMENT_SET_NO = 999
REV_AT_EPOCH   = 22
BSTAR          = .2866863E-3
MEAN_MOTION_DOT = .15413E-3
MEAN_MOTION_DDOT = 0

CCSDS_OMM_VERS = 2.0
CREATION_DATE  = 
ORIGINATOR     = 

OBJECT_NAME    = DRAGONFLY
OBJECT_ID      = 1998-067XH
CENTER_NAME    = EARTH
REF_FRAME      = TEME
TIME_SYSTEM    = UTC
MEAN_ELEMENT_THEORY = SGP/SGP4

EPOCH          = 2026-01-03T02:36:07.474176
MEAN_MOTION    = 15.81317596
ECCENTRICITY   = .0008752
INCLINATION    = 51.6232
RA_OF_ASC_NODE = 25.6885
ARG_OF_PERICENTER = 40.3357
MEAN_ANOMALY   = 319.8292

EPHEMERIS_TYPE = 0
CLASSIFICATION_TYPE = U
NORAD_CAT_ID   = 65729
ELEMENT_SET_NO = 999
REV_AT_EPOCH   = 1653
BSTAR          = .17275E-2
MEAN_MOTION_DOT = .363662E-2
MEAN_MOTION_DDOT = 0

CCSDS_OMM_VERS = 2.0
CREATION_DATE  = 
ORIGINATOR     = 

OBJECT_NAME    = 1998-067XK
OBJECT_ID      = 1998-067XK
CENTER_NAME    = EARTH
REF_FRAME      = TEME
TIME_SYSTEM    = UTC
MEAN_ELEMENT_THEORY = SGP/SGP4

EPOCH          = 2026-01-03T02:03:39.490272
MEAN_MOTION    = 15.70647879
ECCENTRICITY   = .0005302
INCLINATION    = 51.6284
RA_OF_ASC_NODE = 28.5824
ARG_OF_PERICENTER = 15.6827
MEAN_ANOMALY   = 344.4334

EPHEMERIS_TYPE = 0
CLASSIFICATION_TYPE = U
NORAD_CAT_ID   = 65731
ELEMENT_SET_NO = 999
REV_AT_EPOCH   = 1649
BSTAR          = .13176E-2
MEAN_MOTION_DOT = .169168E-2
MEAN_MOTION_DDOT = 0

CCSDS_OMM_VERS = 2.0
CREATION_DATE  = 
ORIGINATOR     = 

OBJECT_NAME    = RSP-03
OBJECT_ID      = 1998-067XL
CENTER_NAME    = EARTH
REF_FRAME      = TEME
TIME_SYSTEM    = UTC
MEAN_ELEMENT_THEORY = SGP/SGP4

EPOCH          = 2026-01-03T04:02:11.310144
MEAN_MOTION    = 15.75401657
ECCENTRICITY   = .0006424
INCLINATION    = 51.6255
RA_OF_ASC_NODE = 26.8597
ARG_OF_PERICENTER = 23.1765
MEAN_ANOMALY   = 336.9523

EPHEMERIS_TYPE = 0
CLASSIFICATION_TYPE = U
NORAD_CAT_ID   = 65732
ELEMENT_SET_NO = 999
REV_AT_EPOCH   = 1653
BSTAR          = .15285E-2
MEAN_MOTION_DOT = .242847E-2
MEAN_MOTION_DDOT = 0

CCSDS_OMM_VERS = 2.0
CREATION_DATE  = 
ORIGINATOR     = 

OBJECT_NAME    = GHS-01
OBJECT_ID      = 1998-067XM
CENTER_NAME    = EARTH
REF_FRAME      = TEME
TIME_SYSTEM    = UTC
MEAN_ELEMENT_THEORY = SGP/SGP4

EPOCH          = 2026-01-02T10:28:56.152992
MEAN_MOTION    = 15.87073258
ECCENTRICITY   = .00096481
INCLINATION    = 51.6261
RA_OF_ASC_NODE = 27.9593
ARG_OF_PERICENTER = 41.4531
MEAN_ANOMALY   = 318.7204

EPHEMERIS_TYPE = 0
CLASSIFICATION_TYPE = U
NORAD_CAT_ID   = 65733
ELEMENT_SET_NO = 999
REV_AT_EPOCH   = 1645
BSTAR          = .18981522E-2
MEAN_MOTION_DOT = .536437E-2
MEAN_MOTION_DDOT = 0

CCSDS_OMM_VERS = 2.0
CREATION_DATE  = 
ORIGINATOR     = 

OBJECT_NAME    = YOTSUBA-KULOVER
OBJECT_ID      = 1998-067XN
CENTER_NAME    = EARTH
REF_FRAME      = TEME
TIME_SYSTEM    = UTC
MEAN_ELEMENT_THEORY = SGP/SGP4

EPOCH          = 2026-01-02T10:56:44.566368
MEAN_MOTION    = 15.62687382
ECCENTRICITY   = .00034708
INCLINATION    = 51.6292
RA_OF_ASC_NODE = 35.6311
ARG_OF_PERICENTER = 42.9636
MEAN_ANOMALY   = 317.1629

EPHEMERIS_TYPE = 0
CLASSIFICATION_TYPE = U
NORAD_CAT_ID   = 65941
ELEMENT_SET_NO = 999
REV_AT_EPOCH   = 1309
BSTAR          = .11729432E-2
MEAN_MOTION_DOT = .10819E-2
MEAN_MOTION_DDOT = 0

CCSDS_OMM_VERS = 2.0
CREATION_DATE  = 
ORIGINATOR     = 

OBJECT_NAME    = BOTAN
OBJECT_ID      = 1998-067XP
CENTER_NAME    = EARTH
REF_FRAME      = TEME
TIME_SYSTEM    = UTC
MEAN_ELEMENT_THEORY = SGP/SGP4

EPOCH          = 2026-01-02T18:54:06.056640
MEAN_MOTION    = 15.68164206
ECCENTRICITY   = .00044128
INCLINATION    = 51.6274
RA_OF_ASC_NODE = 32.5891
ARG_OF_PERICENTER = 33.2425
MEAN_ANOMALY   = 326.8848

EPHEMERIS_TYPE = 0
CLASSIFICATION_TYPE = U
NORAD_CAT_ID   = 65942
ELEMENT_SET_NO = 999
REV_AT_EPOCH   = 1316
BSTAR          = .15176414E-2
MEAN_MOTION_DOT = .175992E-2
MEAN_MOTION_DDOT = 0

CCSDS_OMM_VERS = 2.0
CREATION_DATE  = 
ORIGINATOR     = 

OBJECT_NAME    = E-KAGAKU-1
OBJECT_ID      = 1998-067XQ
CENTER_NAME    = EARTH
REF_FRAME      = TEME
TIME_SYSTEM    = UTC
MEAN_ELEMENT_THEORY = SGP/SGP4

EPOCH          = 2026-01-02T10:56:39.049728
MEAN_MOTION    = 15.62718043
ECCENTRICITY   = .00020784
INCLINATION    = 51.6301
RA_OF_ASC_NODE = 35.6363
ARG_OF_PERICENTER = 33.1595
MEAN_ANOMALY   = 326.9529

EPHEMERIS_TYPE = 0
CLASSIFICATION_TYPE = U
NORAD_CAT_ID   = 65943
ELEMENT_SET_NO = 999
REV_AT_EPOCH   = 1309
BSTAR          = .11508222E-2
MEAN_MOTION_DOT = .106227E-2
MEAN_MOTION_DDOT = 0

CCSDS_OMM_VERS = 2.0
CREATION_DATE  = 
ORIGINATOR     = 

OBJECT_NAME    = HRC MONOBLOCK CAMERA
OBJECT_ID      = 1998-067XR
CENTER_NAME    = EARTH
REF_FRAME      = TEME
TIME_SYSTEM    = UTC
MEAN_ELEMENT_THEORY = SGP/SGP4

EPOCH          = 2026-01-03T02:49:00.887232
MEAN_MOTION    = 15.55792751
ECCENTRICITY   = .0001445
INCLINATION    = 51.6308
RA_OF_ASC_NODE = 34.7941
ARG_OF_PERICENTER = 301.7252
MEAN_ANOMALY   = 58.3599

EPHEMERIS_TYPE = 0
CLASSIFICATION_TYPE = U
NORAD_CAT_ID   = 66052
ELEMENT_SET_NO = 999
REV_AT_EPOCH   = 1216
BSTAR          = .67891E-3
MEAN_MOTION_DOT = .47571E-3
MEAN_MOTION_DDOT = 0

CCSDS_OMM_VERS = 2.0
CREATION_DATE  = 
ORIGINATOR     = 

OBJECT_NAME    = HTV-X1
OBJECT_ID      = 2025-241A
CENTER_NAME    = EARTH
REF_FRAME      = TEME
TIME_SYSTEM    = UTC
MEAN_ELEMENT_THEORY = SGP/SGP4

EPOCH          = 2026-01-02T19:45:18.254016
MEAN_MOTION    = 15.49046836
ECCENTRICITY   = .00075437
INCLINATION    = 51.6329
RA_OF_ASC_NODE = 38.0777
ARG_OF_PERICENTER = 333.0714
MEAN_ANOMALY   = 26.9882

EPHEMERIS_TYPE = 0
CLASSIFICATION_TYPE = U
NORAD_CAT_ID   = 66174
ELEMENT_SET_NO = 999
REV_AT_EPOCH   = 51
BSTAR          = .2866863E-3
MEAN_MOTION_DOT = .15413E-3
MEAN_MOTION_DDOT = 0

CCSDS_OMM_VERS = 2.0
CREATION_DATE  = 
ORIGINATOR     = 

OBJECT_NAME    = SZ-21 MODULE
OBJECT_ID      = 2025-246C
CENTER_NAME    = EARTH
REF_FRAME      = TEME
TIME_SYSTEM    = UTC
MEAN_ELEMENT_THEORY = SGP/SGP4

EPOCH          = 2026-01-03T00:10:39.879264
MEAN_MOTION    = 15.63793066
ECCENTRICITY   = .0002323
INCLINATION    = 41.4755
RA_OF_ASC_NODE = 246.1963
ARG_OF_PERICENTER = 25.4667
MEAN_ANOMALY   = 334.6288

EPHEMERIS_TYPE = 0
CLASSIFICATION_TYPE = U
NORAD_CAT_ID   = 66515
ELEMENT_SET_NO = 999
REV_AT_EPOCH   = 777
BSTAR          = .42308E-3
MEAN_MOTION_DOT = .40642E-3
MEAN_MOTION_DDOT = 0

CCSDS_OMM_VERS = 2.0
CREATION_DATE  = 
ORIGINATOR     = 

OBJECT_NAME    = SHENZHOU-22
OBJECT_ID      = 2025-272A
CENTER_NAME    = EARTH
REF_FRAME      = TEME
TIME_SYSTEM    = UTC
MEAN_ELEMENT_THEORY = SGP/SGP4

EPOCH          = 2026-01-02T21:50:44.462976
MEAN_MOTION    = 15.60104970
ECCENTRICITY   = .00103341
INCLINATION    = 41.4660
RA_OF_ASC_NODE = 248.0996
ARG_OF_PERICENTER = 207.7869
MEAN_ANOMALY   = 152.2418

EPHEMERIS_TYPE = 0
CLASSIFICATION_TYPE = U
NORAD_CAT_ID   = 66645
ELEMENT_SET_NO = 999
REV_AT_EPOCH   = 26733
BSTAR          = .36068227E-3
MEAN_MOTION_DOT = .29967E-3
MEAN_MOTION_DDOT = 0

