CYGNUS NG-23            
1 65616U 25208A   26002.82312794  .00015413  00000+0  28669-3 0  9994
2 65616  51.6329  38.0777 0007543 333.0714  26.9882 15.49046836   229
DRAGONFLY               
1 65729U 98067XH  26003.10841984  .00363662  00000+0  17275-2 0  9994
2 65729  51.6232  25.6885 0008752  40.3357 319.8292 15.81317596 16533
1998-067XK              
1 65731U 98067XK  26003.08587373  .00169168  00000+0  13176-2 0  9994
2 65731  51.6284  28.5824 0005302  15.6827 344.4334 15.70647879 16497
RSP-03                  
1 65732U 98067XL  26003.16818646  .00242847  00000+0  15285-2 0  9993
2 65732  51.6255  26.8597 0006424  23.1765 336.9523 15.75401657 16533
GHS-01                  
1 65733U 98067XM  26002.43676103  .00536437  00000+0  18982-2 0  9991
2 65733  51.6261  27.9593 0009648  41.4531 318.7204 15.87073258 16454
YOTSUBA-KULOVER         
1 65941U 98067XN  26002.45607137  .00108190  00000+0  11729-2 0  9998
2 65941  51.6292  35.6311 0003470  42.9636 317.1629 15.62687382 13095
BOTAN                   
1 65942U 98067XP  26002.78757010  .00175992  00000+0  15176-2 0  9995
2 65942  51.6274  32.5891 0004412  33.2425 326.8848 15.68164206 13160
E-KAGAKU-1              
1 65943U 98067XQ  26002.45600752  .00106227  00000+0  11508-2 0  9990
2 65943  51.6301  35.6363 0002078  33.1595 326.9529 15.62718043 13090
HRC MONOBLOCK CAMERA    
1 66052U 98067XR  26003.11737138  .00047571  00000+0  67891-3 0  9998
2 66052  51.6308  34.7941 0001445 301.7252  58.3599 15.55792751 12162
HTV-X1                  
1 66174U 25241A   26002.82312794  .00015413  00000+0  28669-3 0  9991
2 66174  51.6329  38.0777 0007543 333.0714  26.9882 15.49046836   511
SZ-21 MODULE            
1 66515U 25246C   26003.00740601  .00040642  00000+0  42308-3 0  9996
2 66515  41.4755 246.1963 0002323  25.4667 334.6288 15.63793066  7773
SHENZHOU-22             
1 66645U 25272A   26002.91023684  .00029967  00000+0  36068-3 0  9996
2 66645  41.4660 248.0996 0010334 207.7869 152.2418 15.60104970267335
